HIMAWARI-8              
1 40267U 14060A   24135.73938436 -.00000278  00000+0  00000+0 0  9994
2 40267   0.0270 191.0252 0001083 262.0537 186.7057  1.00270546 35105
